GLOBALSTAR M084         
1 38040U 11080A   25081.59280714 -.00000073  00000+0  16917-3 0  9994
2 38040  52.0019 312.1008 0000639 108.1460 269.5304 12.62263936611734
GLOBALSTAR M080         
1 38041U 11080B   25081.36258765 -.00000073  00000+0  17439-3 0  9991
2 38041  52.0075 314.3797 0000832 118.0532  52.1677 12.62270301611824
GLOBALSTAR M082         
1 38042U 11080C   25081.59099509 -.00000082  00000+0  12137-3 0  9996
2 38042  52.0065 269.1180 0000895  67.7747   1.9962 12.62264362612565
GLOBALSTAR M092         
1 38043U 11080D   25081.50760295 -.00000079  00000+0  13805-3 0  9994
2 38043  52.0115 359.7411 0000526  76.6184  94.7208 12.62261230611002
GLOBALSTAR M086         
1 38045U 11080F   25081.55812053 -.00000065  00000+0  21526-3 0  9995
2 38045  51.9885 263.6825 0001664 112.9916 287.0484 12.62268430612721
GLOBALSTAR M097         
1 39072U 13005A   25081.57592716 -.00000090  00000+0  78905-4 0  9990
2 39072  52.0038 178.0862 0000825 105.6414 254.4544 12.62271110559874
GLOBALSTAR M093         
1 39073U 13005B   25081.54913311 -.00000083  00000+0  11530-3 0  9998
2 39073  51.9805 171.6069 0000771 106.9638 253.1313 12.62262968559821
